OBJECT_NAME,OBJECT_ID,EPOCH,MEAN_MOTION,ECCENTRICITY,INCLINATION,RA_OF_ASC_NODE,ARG_OF_PERICENTER,MEAN_ANOMALY,EPHEMERIS_TYPE,CLASSIFICATION_TYPE,NORAD_CAT_ID,ELEMENT_SET_NO,REV_AT_EPOCH,BSTAR,MEAN_MOTION_DOT,MEAN_MOTION_DDOT
TJS-7,2021-077A,2026-07-08T04:52:55.246080,1.00270463,.0003164,0.3041,264.2463,113.8279,241.8403,0,U,49115,999,975,0,-.108E-5,0
CHINASAT 9B,2021-080A,2026-07-08T02:47:38.889312,1.00272106,.0002143,0.0137,80.8225,59.3732,289.2132,0,U,49125,999,1785,0,-.298E-5,0
SHIJIAN-21 (SJ-21),2021-094A,2026-07-07T15:56:17.978208,1.00283348,.0051447,5.1585,61.0526,168.7238,62.5991,0,U,49330,999,556,0,-.336E-5,0
SES-17,2021-095A,2026-07-08T04:10:07.343904,1.00269132,.0000909,0.0218,42.5599,69.5237,169.4810,0,U,49332,999,1806,0,-.257E-5,0
SYRACUSE 4A,2021-095B,2026-07-08T03:39:00.944928,1.00269799,.0001431,0.0217,30.8592,71.7231,283.8025,0,U,49333,999,1815,0,0,0
QZS-1R (MICHIBIKI-1R),2021-096A,2026-07-07T14:19:35.596128,1.00248309,.0755406,37.5005,79.2823,272.1222,281.4736,0,U,49336,999,1721,0,-.264E-5,0
ZHONGXING-1D,2021-114A,2026-07-08T04:03:06.136992,1.00272554,.000019,0.0534,243.0920,48.1505,185.8607,0,U,49505,999,1703,0,-.321E-5,0
STPSAT-6,2021-118A,2026-07-08T02:53:41.673408,1.00270059,.0000899,0.3715,85.1946,246.1897,246.3718,0,U,49817,999,1678,0,-.3E-6,0
EXPRESS AMU-7,2021-123A,2026-07-08T04:07:13.241856,1.00272286,.0000282,0.0311,274.0068,98.6236,120.3044,0,U,50001,999,1675,0,-.227E-5,0
EXPRESS AMU-3,2021-123B,2026-07-05T22:12:47.581344,1.00269062,.00004631,0.0178,350.4254,17.7985,351.7769,0,U,50002,999,722,0,0,0
TIANLIAN 2-02,2021-124A,2026-07-08T04:14:50.011872,1.00271712,.0001146,0.8525,85.8258,164.0446,270.9567,0,U,50005,999,1683,0,.1E-7,0
TURKSAT 5B,2021-126A,2026-07-08T00:12:45.390816,1.00270559,.0002465,0.0711,336.2133,19.8273,335.1117,0,U,50212,999,1650,0,.161E-5,0
INMARSAT 6-F1,2021-128A,2026-07-08T03:49:52.405248,1.00269915,.0000096,0.0184,294.9065,274.0010,218.4276,0,U,50319,999,1646,0,-.156E-5,0
SHIYAN-12 01 (SY-12 01),2021-129A,2026-07-07T17:22:25.226112,1.00047762,.0002705,3.7241,79.6371,288.2079,221.6946,0,U,50321,999,1670,0,.161E-5,0
SHIYAN-12 02 (SY-12 02),2021-129B,2026-07-07T17:40:01.036704,1.00481370,.0003073,3.7234,79.6381,66.7651,149.0857,0,U,50322,999,1670,0,-.336E-5,0
TJS-9,2021-135A,2026-07-07T04:16:38.837856,1.00267264,.00034341,0.0309,120.5640,306.5572,59.3524,0,U,50574,999,1663,0,-.285E-5,0
GOES 18,2022-021A,2026-07-07T23:21:43.012800,1.00271486,.0000562,0.0081,185.3358,351.8450,322.1729,0,U,51850,999,680,0,.112E-5,0
ZHONGXING-6D,2022-038A,2026-07-07T20:36:34.064640,1.00269530,.0000734,0.0461,251.4613,283.8928,184.6492,0,U,52255,999,1562,0,-.339E-5,0
NILESAT 301,2022-061A,2026-07-08T03:24:02.379744,1.00272818,.0004232,0.0511,334.6114,87.1034,268.4365,0,U,52817,999,1494,0,-.42E-6,0
CMS-02 (GSAT-24),2022-067A,2026-07-08T02:07:05.281248,1.00269957,.0000804,0.0165,54.2017,299.2070,47.3927,0,U,52903,999,1481,0,0,0
MEASAT 3D,2022-067B,2026-07-08T03:51:59.700960,1.00270858,.0000554,0.0592,295.6693,237.1236,262.8166,0,U,52904,999,1486,0,-.226E-5,0
SES-22,2022-071A,2026-07-06T18:15:56.227680,1.00273213,.00010187,0.0347,275.9106,193.2307,310.5886,0,U,52933,999,771,0,.119E-5,0
WFOV (USA 332),2022-073A,2026-07-08T02:39:38.721312,1.00271320,.0001411,3.7611,78.2653,219.9909,147.0468,0,U,52940,999,1458,0,-.35E-5,0
TIANLIAN 2-03,2022-078A,2026-07-08T03:29:01.901760,1.00273740,.0000948,0.7235,77.3925,354.6522,276.9101,0,U,53100,999,1475,0,.87E-6,0
SBIRS GEO-6 (USA 336),2022-092A,2026-07-07T17:49:45.105024,1.00270873,.000187,3.2245,317.8040,148.9141,225.4355,0,U,53355,999,1444,0,-.275E-5,0
EUTELSAT KONNECT VHTS,2022-110A,2026-07-08T00:01:31.469088,1.00274421,.0003108,0.0574,99.4525,348.8148,200.7878,0,U,53765,999,704,0,.33E-6,0
ZHONGXING-1E,2022-112A,2026-07-08T03:49:14.964672,1.00269708,.0000649,0.0408,124.7615,108.9451,191.1131,0,U,53813,999,1405,0,-.134E-5,0
SES-20,2022-123A,2026-07-08T02:56:41.344800,1.00269740,.0001918,0.0168,64.0436,26.8251,136.2815,0,U,53960,999,1374,0,-.86E-6,0
SES-21,2022-123B,2026-07-07T23:23:20.357952,1.00268312,.0001054,0.0393,30.4325,73.3313,42.0765,0,U,53961,999,742,0,0,0
GALAXY 33 (G-33),2022-128A,2026-07-08T03:17:26.824992,1.00273249,.0001745,0.0113,326.4124,141.2319,94.8236,0,U,54026,999,1395,0,.94E-6,0
GALAXY 34 (G-34),2022-128B,2026-07-08T02:51:28.433376,1.00268793,.0001497,0.0190,23.8702,100.2788,75.8054,0,U,54027,999,1412,0,0,0
ANGOSAT 2,2022-131A,2026-07-08T03:32:24.080352,1.00272535,.0000058,0.0236,121.2951,145.1591,95.7498,0,U,54033,999,1368,0,.151E-5,0
