TJS-7                   
1 49115U 21077A   26189.20341720 -.00000108  00000+0  00000+0 0  9990
2 49115   0.3041 264.2463 0003164 113.8279 241.8403  1.00270463  9758
CHINASAT 9B             
1 49125U 21080A   26189.11642233 -.00000298  00000+0  00000+0 0  9998
2 49125   0.0137  80.8225 0002143  59.3732 289.2132  1.00272106 17855
SHIJIAN-21 (SJ-21)      
1 49330U 21094A   26188.66409697 -.00000336  00000+0  00000+0 0  9998
2 49330   5.1585  61.0526 0051447 168.7238  62.5991  1.00283348  5568
SES-17                  
1 49332U 21095A   26189.17369611 -.00000257  00000+0  00000+0 0  9991
2 49332   0.0218  42.5599 0000909  69.5237 169.4810  1.00269132 18066
SYRACUSE 4A             
1 49333U 21095B   26189.15209427  .00000000  00000+0  00000+0 0  9993
2 49333   0.0217  30.8592 0001431  71.7231 283.8025  1.00269799 18157
QZS-1R (MICHIBIKI-1R)   
1 49336U 21096A   26188.59693977 -.00000264  00000+0  00000+0 0  9994
2 49336  37.5005  79.2823 0755406 272.1222 281.4736  1.00248309 17212
ZHONGXING-1D            
1 49505U 21114A   26189.16882103 -.00000321  00000+0  00000+0 0  9992
2 49505   0.0534 243.0920 0000190  48.1505 185.8607  1.00272554 17032
STPSAT-6                
1 49817U 21118A   26189.12062122 -.00000030  00000+0  00000+0 0  9996
2 49817   0.3715  85.1946 0000899 246.1897 246.3718  1.00270059 16780
EXPRESS AMU-7           
1 50001U 21123A   26189.17168104 -.00000227  00000+0  00000+0 0  9999
2 50001   0.0311 274.0068 0000282  98.6236 120.3044  1.00272286 16757
EXPRESS AMU-3           
1 50002U 21123B   26186.92555071  .00000000  00000+0  00000+0 0  9991
2 50002   0.0178 350.4254 0000463  17.7985 351.7769  1.00269062  7223
TIANLIAN 2-02           
1 50005U 21124A   26189.17696773  .00000001  00000+0  00000+0 0  9991
2 50005   0.8525  85.8258 0001146 164.0446 270.9567  1.00271712 16830
TURKSAT 5B              
1 50212U 21126A   26189.00885869  .00000161  00000+0  00000+0 0  9998
2 50212   0.0711 336.2133 0002465  19.8273 335.1117  1.00270559 16501
INMARSAT 6-F1           
1 50319U 21128A   26189.15963432 -.00000156  00000+0  00000+0 0  9992
2 50319   0.0184 294.9065 0000096 274.0010 218.4276  1.00269915 16467
SHIYAN-12 01 (SY-12 01) 
1 50321U 21129A   26188.72390308  .00000161  00000+0  00000+0 0  9999
2 50321   3.7241  79.6371 0002705 288.2079 221.6946  1.00047762 16704
SHIYAN-12 02 (SY-12 02) 
1 50322U 21129B   26188.73612311 -.00000336  00000+0  00000+0 0  9997
2 50322   3.7234  79.6381 0003073  66.7651 149.0857  1.00481370 16703
TJS-9                   
1 50574U 21135A   26188.17822729 -.00000285  00000+0  00000+0 0  9990
2 50574   0.0309 120.5640 0003434 306.5572  59.3524  1.00267264 16637
GOES 18                 
1 51850U 22021A   26188.97341450  .00000112  00000+0  00000+0 0  9996
2 51850   0.0081 185.3358 0000562 351.8450 322.1729  1.00271486  6801
ZHONGXING-6D            
1 52255U 22038A   26188.85872760 -.00000339  00000+0  00000+0 0  9996
2 52255   0.0461 251.4613 0000734 283.8928 184.6492  1.00269530 15622
NILESAT 301             
1 52817U 22061A   26189.14169421 -.00000042  00000+0  00000+0 0  9993
2 52817   0.0511 334.6114 0004232  87.1034 268.4365  1.00272818 14949
CMS-02 (GSAT-24)        
1 52903U 22067A   26189.08825557  .00000000  00000+0  00000+0 0  9990
2 52903   0.0165  54.2017 0000804 299.2070  47.3927  1.00269957 14818
MEASAT 3D               
1 52904U 22067B   26189.16110765 -.00000226  00000+0  00000+0 0  9999
2 52904   0.0592 295.6693 0000554 237.1236 262.8166  1.00270858 14867
SES-22                  
1 52933U 22071A   26187.76106745  .00000119  00000+0  00000+0 0  9993
2 52933   0.0347 275.9106 0001018 193.2307 310.5886  1.00273213  7718
WFOV (USA 332)          
1 52940U 22073A   26189.11086483 -.00000350  00000+0  00000+0 0  9998
2 52940   3.7611  78.2653 0001411 219.9909 147.0468  1.00271320 14581
TIANLIAN 2-03           
1 53100U 22078A   26189.14516090  .00000087  00000+0  00000+0 0  9993
2 53100   0.7235  77.3925 0000948 354.6522 276.9101  1.00273740 14756
SBIRS GEO-6 (USA 336)   
1 53355U 22092A   26188.74288316 -.00000275  00000+0  00000+0 0  9993
2 53355   3.2245 317.8040 0001870 148.9141 225.4355  1.00270873 14443
EUTELSAT KONNECT VHTS   
1 53765U 22110A   26189.00105867  .00000033  00000+0  00000+0 0  9999
2 53765   0.0574  99.4525 0003108 348.8148 200.7878  1.00274421  7040
ZHONGXING-1E            
1 53813U 22112A   26189.15920098 -.00000134  00000+0  00000+0 0  9995
2 53813   0.0408 124.7615 0000649 108.9451 191.1131  1.00269708 14057
SES-20                  
1 53960U 22123A   26189.12270075 -.00000086  00000+0  00000+0 0  9996
2 53960   0.0168  64.0436 0001918  26.8251 136.2815  1.00269740 13746
SES-21                  
1 53961U 22123B   26188.97454118  .00000000  00000+0  00000+0 0  9996
2 53961   0.0393  30.4325 0001054  73.3313  42.0765  1.00268312  7428
GALAXY 33 (G-33)        
1 54026U 22128A   26189.13711603  .00000094  00000+0  00000+0 0  9991
2 54026   0.0113 326.4124 0001745 141.2319  94.8236  1.00273249 13952
GALAXY 34 (G-34)        
1 54027U 22128B   26189.11907909  .00000000  00000+0  00000+0 0  9993
2 54027   0.0190  23.8702 0001497 100.2788  75.8054  1.00268793 14122
ANGOSAT 2               
1 54033U 22131A   26189.14750093  .00000151  00000+0  00000+0 0  9994
2 54033   0.0236 121.2951 0000058 145.1591  95.7498  1.00272535 13683
